CCSDS_OEM_VERS = 1.0
CREATION_DATE  = 2017-05-11T11:22:39
ORIGINATOR     = GMAT USER

META_START
OBJECT_NAME          = MOPSSat_alt_35785_km_RAAN_90_161
OBJECT_ID            = SatId
CENTER_NAME          = Earth
REF_FRAME            = EME2000
TIME_SYSTEM          = UTC
START_TIME           = 2017-01-01T00:00:00.000
USEABLE_START_TIME   = 2017-01-01T00:00:00.000
USEABLE_STOP_TIME    = 2017-01-02T00:00:00.000
STOP_TIME            = 2017-01-02T00:00:00.000
INTERPOLATION        = Lagrange
INTERPOLATION_DEGREE = 7 
META_STOP


                                                                                   

2017-01-01T14:40:00.000   1.469294912859613e+04  -6.322376243084903e+04  -1.887385791044149e+00   1.438693513530565e+00   8.691287649658604e-01  -1.351059046581862e-04
2017-01-01T14:40:10.000   1.470733499311938e+04  -6.321506653550248e+04  -1.888737037034748e+00   1.438479324330774e+00   8.700503061728223e-01  -1.351432874025367e-04
2017-01-01T14:40:20.000   1.472171871432755e+04  -6.320636142433778e+04  -1.890088656725510e+00   1.438264873723757e+00   8.709719426511110e-01  -1.351806468670181e-04
2017-01-01T14:40:30.000   1.473610028960591e+04  -6.319764709640189e+04  -1.891440649883458e+00   1.438050161568160e+00   8.718936745120555e-01  -1.352179830173041e-04
2017-01-01T14:40:40.000   1.475047971635425e+04  -6.318892355073088e+04  -1.892793016276769e+00   1.437835187722179e+00   8.728155018680506e-01  -1.352552958190764e-04
2017-01-01T14:40:50.000   1.476485699202114e+04  -6.318019078632903e+04  -1.894145755678015e+00   1.437619952043037e+00   8.737374248347552e-01  -1.352925852381125e-04
2017-01-01T14:41:00.000   1.477923211405254e+04  -6.317144880220023e+04  -1.895498867859313e+00   1.437404454387757e+00   8.746594435277960e-01  -1.353298512401536e-04
2017-01-01T14:41:10.000   1.479360507988659e+04  -6.316269759735110e+04  -1.896852352591831e+00   1.437188694613245e+00   8.755815580624333e-01  -1.353670937908915e-04
2017-01-01T14:41:20.000   1.480797588693923e+04  -6.315393717079918e+04  -1.898206209644471e+00   1.436972672576488e+00   8.765037685526476e-01  -1.354043128559293e-04
2017-01-01T14:41:30.000   1.482234453259284e+04  -6.314516752158074e+04  -1.899560438782750e+00   1.436756388134742e+00   8.774260751103966e-01  -1.354415084007544e-04
2017-01-01T14:41:40.000   1.483671101423840e+04  -6.313638864872450e+04  -1.900915039772799e+00   1.436539841144895e+00   8.783484778483296e-01  -1.354786803908461e-04
2017-01-01T14:41:50.000   1.485107532908646e+04  -6.312760055136851e+04  -1.902270012363477e+00   1.436323031466338e+00   8.792709768676266e-01  -1.355158287911893e-04
2017-01-01T14:42:00.000   1.486543747439627e+04  -6.311880322861857e+04  -1.903625356308032e+00   1.436105958957488e+00   8.801935722727319e-01  -1.355529535668641e-04
2017-01-01T14:42:10.000   1.487979744739058e+04  -6.310999667960121e+04  -1.904981071356054e+00   1.435888623477075e+00   8.811162641658778e-01  -1.355900546828271e-04
2017-01-01T14:42:20.000   1.489415524558591e+04  -6.310118090326079e+04  -1.906337157284648e+00   1.435671024879150e+00   8.820390526683072e-01  -1.356271321047623e-04
2017-01-01T14:42:30.000   1.490851086646308e+04  -6.309235589856150e+04  -1.907693613867344e+00   1.435453163018061e+00   8.829619378991034e-01  -1.356641857982318e-04
2017-01-01T14:42:40.000   1.492286430754189e+04  -6.308352166444185e+04  -1.909050440881130e+00   1.435235037747335e+00   8.838849199799880e-01  -1.357012157288685e-04
2017-01-01T14:42:50.000   1.493721556619493e+04  -6.307467819992767e+04  -1.910407638088929e+00   1.435016648922461e+00   8.848079990233767e-01  -1.357382218618957e-04
2017-01-01T14:43:00.000   1.495156463978589e+04  -6.306582550404861e+04  -1.911765205252602e+00   1.434797996398832e+00   8.857311751412450e-01  -1.357752041624838e-04
2017-01-01T14:43:10.000   1.496591152566943e+04  -6.305696357583754e+04  -1.913123142132954e+00   1.434579080031733e+00   8.866544484451284e-01  -1.358121625957502e-04
2017-01-01T14:43:20.000   1.498025622105357e+04  -6.304809241441703e+04  -1.914481448476642e+00   1.434359899678472e+00   8.875778190372369e-01  -1.358490971264031e-04
2017-01-01T14:43:30.000   1.499459872318513e+04  -6.303921201888345e+04  -1.915840124033797e+00   1.434140455195521e+00   8.885012870224207e-01  -1.358860077192209e-04
2017-01-01T14:43:40.000   1.500893902927672e+04  -6.303032238835227e+04  -1.917199168551089e+00   1.433920746439638e+00   8.894248525034596e-01  -1.359228943388631e-04
2017-01-01T14:43:50.000   1.502327713683023e+04  -6.302142352175788e+04  -1.918558581802395e+00   1.433700773262906e+00   8.903485156019024e-01  -1.359597569507060e-04
2017-01-01T14:44:00.000   1.503761304331329e+04  -6.301251541805370e+04  -1.919918363558126e+00   1.433480535517693e+00   8.912722764372270e-01  -1.359965955200069e-04
2017-01-01T14:44:10.000   1.505194674623243e+04  -6.300359807616728e+04  -1.921278513592164e+00   1.433260033055533e+00   8.921961351315512e-01  -1.360334100120937e-04
2017-01-01T14:44:20.000   1.506627824294714e+04  -6.299467149511429e+04  -1.922639031664293e+00   1.433039265729945e+00   8.931200917976797e-01  -1.360702003918811e-04
2017-01-01T14:44:30.000   1.508060753080800e+04  -6.298573567391434e+04  -1.923999917533219e+00   1.432818233394351e+00   8.940441465479758e-01  -1.361069666242321e-04
2017-01-01T14:44:40.000   1.509493460715658e+04  -6.297679061159022e+04  -1.925361170956599e+00   1.432596935902063e+00   8.949682994943642e-01  -1.361437086739548e-04
2017-01-01T14:44:50.000   1.510925946918795e+04  -6.296783630725523e+04  -1.926722791677898e+00   1.432375373108440e+00   8.958925507394330e-01  -1.361804265054554e-04
2017-01-01T14:45:00.000   1.512358211413594e+04  -6.295887275999634e+04  -1.928084779444063e+00   1.432153544867995e+00   8.968169003884163e-01  -1.362171200832085e-04
2017-01-01T14:45:10.000   1.513790253920016e+04  -6.294989996891977e+04  -1.929447133998572e+00   1.431931451035526e+00   8.977413485444746e-01  -1.362537893715710e-04
2017-01-01T14:45:20.000   1.515222074186911e+04  -6.294091793294893e+04  -1.930809855112168e+00   1.431709091461114e+00   8.986658953295554e-01  -1.362904343356058e-04
2017-01-01T14:45:30.000   1.516653671959705e+04  -6.293192665102646e+04  -1.932172942552124e+00   1.431486465995121e+00   8.995905408635355e-01  -1.363270549402587e-04
2017-01-01T14:45:40.000   1.518085046987703e+04  -6.292292612206889e+04  -1.933536396089187e+00   1.431263574487066e+00   9.005152852689318e-01  -1.363636511505434e-04
2017-01-01T14:45:50.000   1.519516199005530e+04  -6.291391634508179e+04  -1.934900215479968e+00   1.431040416788481e+00   9.014401286589419e-01  -1.364002229310680e-04
2017-01-01T14:46:00.000   1.520947127746915e+04  -6.290489731907452e+04  -1.936264400480000e+00   1.430816992750794e+00   9.023650711463204e-01  -1.364367702463872e-04
2017-01-01T14:46:10.000   1.522377832944684e+04  -6.289586904305987e+04  -1.937628950843757e+00   1.430593302225320e+00   9.032901128433839e-01  -1.364732930610017e-04
2017-01-01T14:46:20.000   1.523808314317035e+04  -6.288683151614189e+04  -1.938993866311485e+00   1.430369345065452e+00   9.042152538531042e-01  -1.365097913390073e-04
2017-01-01T14:46:30.000   1.525238571586033e+04  -6.287778473739800e+04  -1.940359146626921e+00   1.430145121123719e+00   9.051404942811012e-01  -1.365462650445675e-04
2017-01-01T14:46:40.000   1.526668604470183e+04  -6.286872870592608e+04  -1.941724791530189e+00   1.429920630252965e+00   9.060658342308301e-01  -1.365827141417243e-04
2017-01-01T14:46:50.000   1.528098412717242e+04  -6.285966342063679e+04  -1.943090800789125e+00   1.429695872301199e+00   9.069912738248119e-01  -1.366191385952355e-04
2017-01-01T14:47:00.000   1.529527996071320e+04  -6.285058888046174e+04  -1.944457174167875e+00   1.429470847116751e+00   9.079168131833509e-01  -1.366555383697349e-04
2017-01-01T14:47:10.000   1.530957354281373e+04  -6.284150508429993e+04  -1.945823911434994e+00   1.429245554546947e+00   9.088424524300268e-01  -1.366919134299488e-04
2017-01-01T14:47:20.000   1.532386487078359e+04  -6.283241203116155e+04  -1.947191012341667e+00   1.429019994441670e+00   9.097681916769259e-01  -1.367282637401120e-04
2017-01-01T14:47:30.000   1.533815394194090e+04  -6.282330972004953e+04  -1.948558476639674e+00   1.428794166650430e+00   9.106940310368284e-01  -1.367645892644501e-04
2017-01-01T14:47:40.000   1.535244075357028e+04  -6.281419814998587e+04  -1.949926304077383e+00   1.428568071023009e+00   9.116199706204868e-01  -1.368008899670720e-04
2017-01-01T14:47:50.000   1.536672530293440e+04  -6.280507732000500e+04  -1.951294494400817e+00   1.428341707409303e+00   9.125460105373601e-01  -1.368371658120008e-04
2017-01-01T14:48:00.000   1.538100758728806e+04  -6.279594722914435e+04  -1.952663047355032e+00   1.428115075659086e+00   9.134721508965419e-01  -1.368734167632087e-04
2017-01-01T14:48:10.000   1.539528760388341e+04  -6.278680787644088e+04  -1.954031962684614e+00   1.427888175621920e+00   9.143983918070920e-01  -1.369096427846293e-04
2017-01-01T14:48:20.000   1.540956535002102e+04  -6.277765926089889e+04  -1.955401240138558e+00   1.427661007146364e+00   9.153247333813490e-01  -1.369458438402890e-04
2017-01-01T14:48:30.000   1.542384082301578e+04  -6.276850138151128e+04  -1.956770879467021e+00   1.427433570080492e+00   9.162511757327217e-01  -1.369820198942189e-04
2017-01-01T14:48:40.000   1.543811402019691e+04  -6.275933423725983e+04  -1.958140880421318e+00   1.427205864271901e+00   9.171777189756927e-01  -1.370181709104549e-04
2017-01-01T14:48:50.000   1.545238493894191e+04  -6.275015782709271e+04  -1.959511242757199e+00   1.426977889567160e+00   9.181043632280274e-01  -1.370542968531217e-04
2017-01-01T14:49:00.000   1.546665357662557e+04  -6.274097214995778e+04  -1.960881966229944e+00   1.426749645812626e+00   9.190311086074610e-01  -1.370903976863054e-04
